      2.10          N: GNSS NAV DATA                        RINEX VERSION / TYPE
fic2rin                                 02/23/2020 00:19:44 PGM / RUN BY / DATE
                                                            END OF HEADER
28 20  2 22 16  0  0.0 7.375502027571e-04-2.614797267597e-12 0.000000000000e+00
    9.800000000000e+01 3.437500000000e-01 4.043739866568e-09-8.967123373596e-01
    2.607703208923e-08 1.863628579304e-02 1.126900315285e-05 5.153671140671e+03
    5.760000000000e+05-3.110617399216e-07 2.816383881373e+00 5.774199962616e-08
    9.789352734978e-01 1.762812500000e+02-1.414225303040e+00-8.014262397626e-09
   -4.868059917093e-10 1.000000000000e+00 2.093000000000e+03 0.000000000000e+00
    4.850000000000e+00 0.000000000000e+00-1.117587089539e-08 9.800000000000e+01
    5.688000000000e+05 4.000000000000e+00
18 20  2 22 16  0  0.0 3.885477781296e-06 1.818989403546e-12 0.000000000000e+00
    8.600000000000e+01 1.225000000000e+01 4.719482299667e-09 2.198563593993e+00
    3.837049007416e-07 1.569377258420e-02 3.855675458908e-07 5.153636909485e+03
    5.760000000000e+05 2.086162567139e-07-1.519228858026e+00-1.247972249985e-07
    9.572083886915e-01 3.680937500000e+02 1.455770006984e+00-8.334990042934e-09
    7.000291590243e-11 1.000000000000e+00 2.093000000000e+03 0.000000000000e+00
    3.400000000000e+00 6.300000000000e+01-5.587935447693e-09 8.600000000000e+01
    5.688000000000e+05 4.000000000000e+00
 4 20  2 22 16  0  0.0-5.249632522464e-05-5.343281372916e-12 0.000000000000e+00
    2.020000000000e+02 1.546875000000e+01 4.567333104900e-09-2.524556619037e+00
    7.152557373047e-07 5.621596937999e-04 1.024827361107e-05 5.153718469620e+03
    5.760000000000e+05 3.166496753693e-08 6.611579598143e-01-4.284083843231e-08
    9.602010099862e-01 1.854062500000e+02-2.716651337261e+00-7.899971922683e-09
    5.818099490054e-10 1.000000000000e+00 2.093000000000e+03 0.000000000000e+00
    2.400000000000e+00 0.000000000000e+00-4.190951585770e-09 7.140000000000e+02
    5.692800000000e+05 4.000000000000e+00
11 20  2 22 15 59 44.0-3.538392484188e-04 1.091393642128e-11 0.000000000000e+00
    2.000000000000e+01 9.687500000000e+01 5.605233480473e-09 2.038242751323e+00
    4.919245839119e-06 1.591417111922e-02 1.713633537292e-06 5.153716321945e+03
    5.759840000000e+05 2.253800630569e-07-1.926890193317e+00 7.078051567078e-08
    9.118081700016e-01 3.152812500000e+02 1.962978467372e+00-8.667146735736e-09
    2.014369620866e-10 1.000000000000e+00 2.093000000000e+03 0.000000000000e+00
    2.400000000000e+00 0.000000000000e+00-1.257285475731e-08 2.000000000000e+01
    5.707200000000e+05 4.000000000000e+00
 5 20  2 22 15 59 44.0-8.000060915947e-06-5.684341886081e-13 0.000000000000e+00
    2.800000000000e+01-1.108125000000e+02 4.540903432569e-09-8.759701471013e-01
   -5.606561899185e-06 5.761267850175e-03 8.616596460342e-06 5.153610992432e+03
    5.759840000000e+05 5.960464477539e-08-4.473830150926e-01 9.685754776001e-08
    9.521209008915e-01 2.055312500000e+02 7.938197146460e-01-8.141410551000e-09
   -1.542921411727e-10 1.000000000000e+00 2.093000000000e+03 0.000000000000e+00
    2.400000000000e+00 0.000000000000e+00-1.117587089539e-08 2.800000000000e+01
    5.712000000000e+05 4.000000000000e+00
18 20  2 22 15 59 44.0 3.884080797434e-06 1.818989403546e-12 0.000000000000e+00
    2.000000000000e+00 1.225000000000e+01 4.719839457401e-09 2.196229819799e+00
    3.837049007416e-07 1.569377002306e-02 3.855675458908e-07 5.153636903763e+03
    5.759840000000e+05 2.086162567139e-07-1.519228716123e+00-1.247972249985e-07
    9.572083916174e-01 3.680937500000e+02 1.455770052335e+00-8.334990042934e-09
    7.000291590243e-11 1.000000000000e+00 2.093000000000e+03 0.000000000000e+00
    2.400000000000e+00 6.300000000000e+01-5.587935447693e-09 2.000000000000e+00
    5.734500000000e+05 4.000000000000e+00
23 20  2 22 15 59 44.0-1.345663331449e-04 2.614797267597e-12 0.000000000000e+00
    1.000000000000e+00 1.050000000000e+01 4.824486673521e-09-3.080286141253e+00
    3.632158041000e-07 1.349235628732e-02 1.059472560883e-05 5.153665294647e+03
    5.759840000000e+05 9.499490261078e-08 6.063037881064e-01-2.477318048477e-07
    9.437569666715e-01 1.671875000000e+02-2.195114812897e+00-7.841040896541e-09
    5.785955293977e-10 1.000000000000e+00 2.093000000000e+03 0.000000000000e+00
    2.400000000000e+00 0.000000000000e+00-2.002343535423e-08 1.000000000000e+00
    5.749500000000e+05 4.000000000000e+00
28 20  2 22 15 59 44.0 7.375576533377e-04-2.501110429876e-12 0.000000000000e+00
    4.000000000000e+00 3.437500000000e-01 4.043382708834e-09-8.990461305715e-01
    2.607703208923e-08 1.863628870342e-02 1.126900315285e-05 5.153671134949e+03
    5.759840000000e+05-3.110617399216e-07 2.816384007184e+00 5.774199962616e-08
    9.789352837382e-01 1.762812500000e+02-1.414225218191e+00-8.014262397626e-09
   -4.864488339751e-10 1.000000000000e+00 2.093000000000e+03 0.000000000000e+00
    2.400000000000e+00 0.000000000000e+00-1.117587089539e-08 4.000000000000e+00
    5.750400000000e+05 4.000000000000e+00
 5 20  2 22 17 59 44.0-8.004251867533e-06-5.684341886081e-13 0.000000000000e+00
    2.900000000000e+01-1.107500000000e+02 4.480543775490e-09 1.743749269585e-01
   -5.714595317841e-06 5.761883454397e-03 8.327886462212e-06 5.153612569809e+03
    5.831840000000e+05-2.421438694000e-08-4.474417980669e-01 1.005828380585e-07
    9.521196661887e-01 2.147500000000e+02 7.936927158017e-01-8.166054434659e-09
   -1.657211886670e-10 1.000000000000e+00 2.093000000000e+03 0.000000000000e+00
    2.400000000000e+00 0.000000000000e+00-1.117587089539e-08 2.900000000000e+01
    5.760000000000e+05 4.000000000000e+00
11 20  2 22 17 59 44.0-3.537610173225e-04 1.091393642128e-11 0.000000000000e+00
    2.100000000000e+01 9.887500000000e+01 5.680593762389e-09 3.088416927293e+00
    5.135312676430e-06 1.591495994944e-02 1.631677150726e-06 5.153714942932e+03
    5.831840000000e+05 1.359730958939e-07-1.926952431703e+00 1.136213541031e-07
    9.118095319784e-01 3.221562500000e+02 1.962967281901e+00-8.638574117001e-09
    2.010798043524e-10 1.000000000000e+00 2.093000000000e+03 0.000000000000e+00
    2.400000000000e+00 0.000000000000e+00-1.257285475731e-08 2.100000000000e+01
    5.760000000000e+05 4.000000000000e+00
23 20  2 22 17 59 44.0-1.345477066934e-04 2.614797267597e-12 0.000000000000e+00
    2.000000000000e+00 1.321875000000e+01 4.760912596834e-09-2.030134507388e+00
    4.619359970093e-07 1.349273894448e-02 9.972602128983e-06 5.153664178848e+03
    5.831840000000e+05 2.048909664154e-07 6.062461930216e-01-3.166496753693e-08
    9.437618338000e-01 1.715312500000e+02-2.195077745479e+00-7.872470777150e-09
    7.614602893061e-10 1.000000000000e+00 2.093000000000e+03 0.000000000000e+00
    2.400000000000e+00 0.000000000000e+00-2.002343535423e-08 2.000000000000e+00
    5.760000000000e+05 4.000000000000e+00
28 20  2 22 17 59 44.0 7.375394925475e-04-2.501110429876e-12 0.000000000000e+00
    5.000000000000e+00-8.031250000000e+00 4.117314359812e-09 1.510944129116e-01
   -3.650784492493e-07 1.863552932627e-02 1.120939850807e-05 5.153669227600e+03
    5.831840000000e+05-2.514570951462e-07 2.816326530596e+00-1.527369022369e-07
    9.789316425351e-01 1.796562500000e+02-1.414185530687e+00-8.041049227691e-09
   -5.818099490054e-10 1.000000000000e+00 2.093000000000e+03 0.000000000000e+00
    2.400000000000e+00 0.000000000000e+00-1.117587089539e-08 5.000000000000e+00
    5.760000000000e+05 4.000000000000e+00
18 20  2 22 17 59 44.0 3.897119313478e-06 1.818989403546e-12 0.000000000000e+00
    4.000000000000e+00 4.781250000000e+00 4.799485632127e-09-3.036720941171e+00
    3.129243850708e-07 1.569485664368e-02 2.719461917877e-07 5.153634752274e+03
    5.831840000000e+05 1.415610313416e-07-1.519288117911e+00-1.303851604462e-08
    9.572088348815e-01 3.727812500000e+02 1.455741076316e+00-8.274987543589e-09
    3.714440435639e-11 1.000000000000e+00 2.093000000000e+03 0.000000000000e+00
    2.400000000000e+00 6.300000000000e+01-5.587935447693e-09 4.000000000000e+00
    5.760000000000e+05 4.000000000000e+00
 2 20  2 22 18  0  0.0-4.095118492842e-04-6.821210263297e-12 0.000000000000e+00
    5.300000000000e+01 9.562500000000e+00 4.693409785071e-09-2.451431065727e+00
    6.128102540970e-07 1.981547253672e-02 3.073364496231e-07 5.153640913010e+03
    5.832000000000e+05 2.607703208923e-07-1.532674620016e+00 3.166496753693e-08
    9.576855998836e-01 3.703750000000e+02-1.656427086711e+00-8.149268021152e-09
    1.364342544629e-10 1.000000000000e+00 2.093000000000e+03 0.000000000000e+00
    2.400000000000e+00 0.000000000000e+00-1.769512891769e-08 5.300000000000e+01
    5.760000000000e+05 4.000000000000e+00
 1 20  2 22 18  0  0.0-3.033834509552e-04-1.227817847393e-11 0.000000000000e+00
    4.200000000000e+01-9.656250000000e+00 4.348038256103e-09-2.720743122055e+00
   -4.582107067108e-07 9.410917758942e-03 1.035630702972e-06 5.153630443573e+03
    5.832000000000e+05-5.587935447693e-09-1.458302936994e+00-5.401670932770e-08
    9.786439011781e-01 3.704375000000e+02 7.555107397234e-01-8.173911904812e-09
    5.785955293977e-11 1.000000000000e+00 2.093000000000e+03 0.000000000000e+00
    2.400000000000e+00 0.000000000000e+00 5.587935447693e-09 4.200000000000e+01
    5.760000000000e+05 4.000000000000e+00
 3 20  2 22 18  0  0.0-1.007169485092e-04-9.094947017729e-12 0.000000000000e+00
    7.400000000000e+01-1.225312500000e+02 4.139815297067e-09 2.445123615430e+00
   -6.236135959625e-06 2.625670284033e-03 8.970499038696e-06 5.153617160797e+03
    5.832000000000e+05-7.450580596924e-09-4.168693191147e-01-4.842877388000e-08
    9.652496660887e-01 2.080312500000e+02 7.266096388251e-01-7.927115910482e-09
   -1.453631978178e-10 1.000000000000e+00 2.093000000000e+03 0.000000000000e+00
    2.400000000000e+00 0.000000000000e+00 1.862645149231e-09 7.400000000000e+01
    5.760000000000e+05 4.000000000000e+00
